[{"OBJECT_NAME":"JINJUSAT-1B","OBJECT_ID":"2025-052A","EPOCH":"2026-03-09T15:55:38.242848","MEAN_MOTION":15.30194857,"ECCENTRICITY":0.00055504,"INCLINATION":97.4113,"RA_OF_ASC_NODE":325.4613,"ARG_OF_PERICENTER":82.193,"MEAN_ANOMALY":277.9941,"EPHEMERIS_TYPE":0,"CLASSIFICATION_TYPE":"U","NORAD_CAT_ID":63210,"ELEMENT_SET_NO":999,"REV_AT_EPOCH":5486,"BSTAR":0.00068430401,"MEAN_MOTION_DOT":0.00019955,"MEAN_MOTION_DDOT":0},{"OBJECT_NAME":"STARLINK-33715","OBJECT_ID":"2025-069J","EPOCH":"2026-03-09T11:52:52.040928","MEAN_MOTION":15.30177054,"ECCENTRICITY":0.00011892,"INCLINATION":53.1577,"RA_OF_ASC_NODE":143.4675,"ARG_OF_PERICENTER":75.5343,"MEAN_ANOMALY":284.579,"EPHEMERIS_TYPE":0,"CLASSIFICATION_TYPE":"U","NORAD_CAT_ID":63441,"ELEMENT_SET_NO":999,"REV_AT_EPOCH":5337,"BSTAR":0.00086347613,"MEAN_MOTION_DOT":0.00025283,"MEAN_MOTION_DDOT":0}]
